#cP2021 10 19  0  0  0.00000000      96 ORBIT IGb14 HLM  IGS
## 2180 172800.00000000   900.00000000 59506 0.0000000000000
+   32   G01G02G03G04G05G06G07G08G09G10G11G12G13G14G15G16G17
+        G18G19G20G21G22G23G24G25G26G27G28G29G30G31G32  0  0
+          0  0  0  0  0  0  0  0  0  0  0  0  0  0  0  0  0
+          0  0  0  0  0  0  0  0  0  0  0  0  0  0  0  0  0
+          0  0  0  0  0  0  0  0  0  0  0  0  0  0  0  0  0
++         2  2  1  2  1  2  2  2  1  1  3  1  2  2  1  2  1
++         2  2  1  2  2  2  3  1  1  2  2  2  2  2  1  0  0
++         0  0  0  0  0  0  0  0  0  0  0  0  0  0  0  0  0
++         0  0  0  0  0  0  0  0  0  0  0  0  0  0  0  0  0
++         0  0  0  0  0  0  0  0  0  0  0  0  0  0  0  0  0
%c G  cc GPS ccc cccc cccc cccc cccc ccccc ccccc ccccc ccccc
%c cc cc ccc ccc cccc cccc cccc cccc ccccc ccccc ccccc ccccc
%f  1.2500000  1.025000000  0.00000000000  0.000000000000000
%f  0.0000000  0.000000000  0.00000000000  0.000000000000000
%i    0    0    0    0      0      0      0      0         0
%i    0    0    0    0      0      0      0      0         0
/* FINAL ORBIT COMBINATION FROM WEIGHTED AVERAGE OF:        
/* cod emr esa gfz grg jpl mit ngs sio                      
/* REFERENCED TO IGS TIME (IGST) AND TO WEIGHTED MEAN POLE: 
/* PCV:IGS14_2178 OL/AL:FES2004  NONE     Y  ORB:CMB CLK:CMB
*  2021 10 19 10 30  0.00000000
PG01  22501.658840  14455.596871   -122.632704    535.050094  7     2  70       
PG02  -6536.943913 -18165.771437  18863.178532   -638.163888  4  2  6  82       
PG03  12542.744027  13617.973571  18978.215665   -330.341520  2  2  3  93       
PG04  19303.091604   4350.216031  17752.967345   -203.458622  4  4  3  71       
PG05  -6450.994027 -24125.240118  -8976.929605    -58.176473  5     4  89       
PG06   8155.323448 -12235.714519  22180.017746     97.942351  5  4  1  84       
PG07  22806.402286   3227.660960 -13273.275496    264.885169  7  4  6  72       
PG08   9550.752673  11903.324776 -21768.129490    -40.674392  6  6  4 105       
PG09  24196.171291  -6120.835792   9052.995000   -361.872365  4  4  2  51       
PG10 -11688.896245  17129.825709 -16304.992370   -227.195818  5  4  4  58       
PG11  -4061.160691 -18650.256874  18465.703267     21.237059  8  4  7  70       
PG12 -10910.517279 -15654.632065  18280.641796   -113.756019  2  3     68       
PG13   -842.410847 -15563.977499 -21636.833074    201.803578  5  5  4  59       
PG14  12687.312749 -16872.553693 -16084.643926    -21.911720  4  5  5  61       
PG15 -11682.607446 -11336.627188 -21409.390055   -112.854597  3  5     77       
PG16   1027.697485  25634.072182  -6113.677418   -409.585912  6  4  7 100       
PG17  22470.028118 -13580.455012   4497.562162    521.325105  6  4  3  88       
PG18 -21793.028567  -1804.975291 -15151.898053    308.156843  8  5  3  94       
PG19  17498.770080 -15700.024562  11929.128909     67.849918  6  3  1  95       
PG20  -1069.278702 -26533.239212   2801.163268    518.556579  5     2  90       
PG21  19780.946314  16212.696599  -7460.564410    148.249119  8  2     70       
PG22  11304.854215  20205.806076  13367.369253   -485.632662  4  3  5  71       
PG23 -14845.149991   5221.136086 -21408.078646     43.280917  5  4  5  69       
PG24 -21432.316176 -15360.957574  -4948.671668    255.878952  8  6  5  94       
PG25 -14868.350159  -4243.517850  21358.133212    226.847545  1  3  2  82       
PG26  -5326.764326  24643.263912   7809.675106    146.458706  4  5  2  89       
PG27  -1490.209171  16704.847048 -20682.180494   -208.211866  4  4  6  83       
PG28   9714.191048 -22514.670509  -9914.546439    479.643430  6  7  8  77       
PG29 -23626.092978   1662.063348  12043.378630   -428.415386  5  4  5  73       
PG30  16196.050489  -6881.451862 -19887.830210   -483.748780  5  6  6  43       
PG31  -6747.139071  13775.220296  21553.675595   -145.733718  3  5  3  84       
PG32 -19635.401333  16324.903606   7074.766619    -11.854672  5  3  3  74       
*  2021 10 19 10 45  0.00000000
PG01  22296.182604  14515.043540  -3000.913438    535.040508  7     3  64       
PG02  -4587.856793 -17344.383918  20217.600934   -638.165331  5  2  5  90       
PG03  12418.608248  15712.471639  17392.530517   -330.353368  2  2  3  88       
PG04  17497.522698   5458.548024  19248.749859   -203.458081  3  3  3  69       
PG05  -6227.898761 -24992.781012  -6301.529189    -58.177705  5     4  80       
PG06  10313.867140 -10965.537401  21948.610491     97.949878  5  3  2  82       
PG07  23928.192018   4129.453104 -10951.261481    264.890662  8  4  6  64       
PG08   7413.832029  13182.278707 -21835.741832    -40.675839  6  6  5  93       
PG09  23301.888865  -5301.232974  11549.109513   -361.872492  4  4     51       
PG10 -11851.869252  15133.548640 -18079.554148   -227.203201  4  4  4  68       
PG11  -2163.944837 -17546.201216  19815.998272     21.236979  7  5  7  66       
PG12 -10630.418070 -17671.177310  16561.634071   -113.760894  2  4     63       
PG13   1405.236238 -16422.566690 -20944.068055    201.808502  5  5  5  72       
PG14  12776.290564 -14921.910534 -17850.310561    -21.918447  5  4  5  70       
PG15  -9776.410652 -12769.247090 -21530.090247   -112.852014  3  5     81       
PG16    730.406013  26124.659848  -3277.096217   -409.591579  6  4  7  96       
PG17  22825.166180 -13542.806133   1630.667954    521.330042  5  4  4  74       
PG18 -23074.806880  -2780.204672 -12953.723208    308.152221  8  4  2  73       
PG19  18728.079342 -16032.532122   9394.033867     67.854680  7  3  2 104       
PG20   -711.952864 -26103.750375   5545.654902    518.556455  5     2  84       
PG21  18720.349977  15940.951981 -10038.614332    148.250049  8  1     50       
PG22  11200.061700  21596.597797  11070.858208   -485.624467  4  3  5  86       
PG23 -14946.799695   2756.223497 -21800.490661     43.276787  5  4  5  55       
PG24 -20696.958760 -15315.296303  -7607.432867    255.884285  9  6  5  81       
PG25 -14830.840540  -6706.708322  20775.985425    226.853064  1  3  3  86       
PG26  -5684.342701  23600.165310  10369.989531    146.462258  3  4  2  94       
PG27  -3506.535174  17750.904801 -19491.033348   -208.216318  3  4  6  80       
PG28   9782.293186 -21159.725741 -12372.043815    479.637234  6  7  8  70       
PG29 -22329.865183    870.424200  14362.128604   -428.420490  5  3  5  97       
PG30  18028.775177  -5618.236843 -18697.098864   -483.751884  5  6  6  55       
PG31  -8886.204773  12493.503674  21600.637269   -145.735223  4  4  3  87       
PG32 -20324.594642  16419.021915   4315.284298    -11.858336  5  2  4  61       
*  2021 10 19 11  0  0.00000000
PG01  21810.333411  14438.162278  -5828.787886    535.030865  7     4  60       
PG02  -2479.303819 -16580.756017  21241.925239   -638.167209  5  2  5  87       
PG03  12395.624110  17612.467893  15506.367646   -330.365221  2  3  2  90       
PG04  15623.390619   6738.364043  20414.025015   -203.457542  3  2  3  77       
PG05  -6018.285478 -25563.466602  -3517.155162    -58.179172  5     3  77       
PG06  12497.640622  -9840.178321  21341.867178     97.957445  5  3  3  67       
PG07  24850.419505   4844.167820  -8442.355484    264.896205  9  4  6  61       
PG08   5356.171343  14566.558769 -21527.712217    -40.677758  6  6  5  93       
PG09  22226.257789  -4283.433222  13846.038837   -361.872611  3  4     65       
PG10 -12131.326609  12965.599320 -19536.916012   -227.210529  3  4  4  70       
PG11    -95.830217 -16475.811085  20825.151876     21.236974  6  6  7  74       
PG12 -10462.314774 -19484.914796  14554.015483   -113.765814  3  3  1  66       
PG13   3517.023644 -17358.298688 -19894.624652    201.813573  6  5  5  70       
PG14  12967.589257 -12796.285786 -19308.210489    -21.925167  5  4  5  79       
PG15  -7943.789822 -14290.111382 -21293.092090   -112.849296  4  5     76       
PG16    467.330349  26302.874977   -382.715388   -409.597146  6  4  7  70       
PG17  22901.024857 -13359.182116  -1264.153966    521.334684  5  4  3  86       
PG18 -24175.936013  -3563.134851 -10533.802292    308.147605  9  4     79       
PG19  19669.609986 -16294.797700   6693.958527     67.859034  7  3  2  79       
PG20   -270.869613 -25396.008381   8196.134344    518.556046  5     2  98       
PG21  17378.798969  15620.882741 -12443.784043    148.251373  8        38       
PG22  11119.803105  22727.288939   8587.387170   -485.616150  4  3  5  67       
PG23 -15180.599073    277.807524 -21818.443456     43.272666  6  4  5  45       
PG24 -19694.332688 -15194.207397 -10139.423041    255.889527  9  6  5  87       
PG25 -14914.484609  -9077.998096  19829.510926    226.858587  2  4  3  78       
PG26  -6120.841395  22296.551898  12748.518147    146.465848  3  3  2  78       
PG27  -5338.614310  18821.619001 -17965.814865   -208.220737  3  4  5  96       
PG28   9916.310120 -19537.491720 -14612.466074    479.630723  6  8  7  72       
PG29 -20861.860083   -114.132289  16433.816674   -428.425339  5  3  5  71       
PG30  19784.257590  -4518.361191 -17185.124774   -483.754976  6  5  6  69       
PG31 -11069.739128  11332.627258  21272.905932   -145.736922  4  4  3  76       
PG32 -20744.822775  16371.241185   1480.884325    -11.862079  5  2  4  75       
EOF
